{
    "links": {
        "self": "http://www.neowsapp.com/rest/v1/neo/3595921?api_key=iIulBulltgU6a56xZRHN4H3l9WmuAYTsLGpBGhQ2"
    },
    "id": "3595921",
    "neo_reference_id": "3595921",
    "name": "(2012 BP1)",
    "designation": "2012 BP1",
    "nasa_jpl_url": "http://ssd.jpl.nasa.gov/sbdb.cgi?sstr=3595921",
    "absolute_magnitude_h": 24.2,
    "estimated_diameter": {
        "kilometers": {
            "estimated_diameter_min": 0.0384197891,
            "estimated_diameter_max": 0.0859092601
        },
        "meters": {
            "estimated_diameter_min": 38.4197891064,
            "estimated_diameter_max": 85.9092601232
        },
        "miles": {
            "estimated_diameter_min": 0.0238729428,
            "estimated_diameter_max": 0.0533815229
        },
        "feet": {
            "estimated_diameter_min": 126.0491808919,
            "estimated_diameter_max": 281.8545369825
        }
    },
    "is_potentially_hazardous_asteroid": false,
    "close_approach_data": [
        {
            "close_approach_date": "2012-01-17",
            "close_approach_date_full": "2012-Jan-17 06:02",
            "epoch_date_close_approach": 1326780120000,
            "relative_velocity": {
                "kilometers_per_second": "13.6254323114",
                "kilometers_per_hour": "49051.5563211955",
                "miles_per_hour": "30478.7295374673"
            },
            "miss_distance": {
                "astronomical": "0.1763887413",
                "lunar": "68.6152203657",
                "kilometers": "26387379.990461031",
                "miles": "16396357.6168669878"
            },
            "orbiting_body": "Earth"
        }
    ],
    "orbital_data": {
        "orbit_id": "4",
        "orbit_determination_date": "2017-04-06 08:51:26",
        "first_observation_date": "2012-01-18",
        "last_observation_date": "2012-01-19",
        "data_arc_in_days": 1,
        "observations_used": 11,
        "orbit_uncertainty": "9",
        "minimum_orbit_intersection": ".174541",
        "jupiter_tisserand_invariant": "4.629",
        "epoch_osculation": "2455945.5",
        "eccentricity": ".1738011525226749",
        "semi_major_axis": "1.401961523846152",
        "inclination": "26.11828034644371",
        "ascending_node_longitude": "116.3870200889877",
        "orbital_period": "606.3209423724279",
        "perihelion_distance": "1.158298995209245",
        "perihelion_argument": ".1125581012732277",
        "aphelion_distance": "1.645624052483058",
        "perihelion_time": "2455945.491225232140",
        "mean_anomaly": ".005209974138844197",
        "mean_motion": ".5937449539370732",
        "equinox": "J2000",
        "orbit_class": {
            "orbit_class_type": "AMO",
            "orbit_class_description": "Near-Earth asteroid orbits similar to that of 1221 Amor",
            "orbit_class_range": "1.017 AU < q (perihelion) < 1.3 AU"
        }
    },
    "is_sentry_object": false
}